NORAD_CAT_ID,OBJECT_NAME,OBJECT_TYPE,EPOCH,MEAN_MOTION,ECCENTRICITY,INCLINATION,RA_OF_ASC_NODE,ARG_OF_PERICENTER,MEAN_ANOMALY,BSTAR,MEAN_MOTION_DOT,MEAN_MOTION_DDOT,TLE_LINE0,TLE_LINE1,TLE_LINE2,SEMIMAJOR_AXIS,PERIOD,APOGEE,PERIGEE,DECAYED
51754.0,STARLINK-3457,PAYLOAD,2024-03-06 04:35:38,15.08850175,0.0001691,53.2202,1.683,108.8241,251.2935,-3.9387e-05,-9.15e-06,0.0,0 STARLINK-3457,1 51754U 22016AS  24066.19141659 -.00000915  00000-0 -39387-4 0  9998,2 51754  53.2202   1.6830 0001691 108.8241 251.2935 15.08850175114099,6917.849,95.437,540.884,538.544,0.0
51754.0,STARLINK-3457,PAYLOAD,2024-03-07 02:51:03,15.08831679,0.000132,53.2184,357.5218,82.8119,277.3024,-1.7058e-05,-5.59e-06,0.0,0 STARLINK-3457,1 51754U 22016AS  24067.11879119 -.00000559  00000-0 -17058-4 0  9995,2 51754  53.2184 357.5218 0001320  82.8119 277.3024 15.08831679114237,6917.906,95.438,540.684,538.858,0.0
51754.0,STARLINK-3457,PAYLOAD,2024-03-07 12:23:21,15.0884084,0.0001212,53.2184,355.7341,81.735,278.3779,7.2421e-05,8.65e-06,0.0,0 STARLINK-3457,1 51754U 22016AS  24067.51622319  .00000865  00000-0  72421-4 0  9990,2 51754  53.2184 355.7341 0001212  81.7350 278.3779 15.08840840113179,6917.878,95.438,540.581,538.904,0.0
51754.0,STARLINK-3457,PAYLOAD,2024-03-08 02:41:50,15.08837874,0.0001602,53.2199,353.0571,96.0651,264.0524,1.6397e-06,-2.62e-06,0.0,0 STARLINK-3457,1 51754U 22016AS  24068.11238995 -.00000262  00000-0  16397-5 0  9993,2 51754  53.2199 353.0571 0001602  96.0651 264.0524 15.08837874114384,6917.887,95.438,540.86,538.644,0.0
51754.0,STARLINK-3457,PAYLOAD,2024-03-08 12:14:08,15.08850646,0.0001588,53.2207,351.2681,98.6436,261.4736,0.00014137,1.963e-05,0.0,0 STARLINK-3457,1 51754U 22016AS  24068.50981677  .00001963  00000-0  14137-3 0  9994,2 51754  53.2207 351.2681 0001588  98.6436 261.4736 15.08850646114443,6917.848,95.437,540.811,538.614,0.0
51754.0,STARLINK-3457,PAYLOAD,2024-03-09 04:08:00,15.08836112,0.0001351,53.2193,348.296,94.4705,265.6441,3.4625e-05,2.63e-06,0.0,0 STARLINK-3457,1 51754U 22016AS  24069.17223127  .00000263  00000-0  34625-4 0  9994,2 51754  53.2193 348.2960 0001351  94.4705 265.6441 15.08836112114546,6917.892,95.438,540.692,538.823,0.0
51754.0,STARLINK-3457,PAYLOAD,2024-03-09 12:04:55,15.08846534,0.0001301,53.2184,346.8127,91.371,268.7431,9.4799e-05,1.221e-05,0.0,0 STARLINK-3457,1 51754U 22016AS  24069.50342275  .00001221  00000-0  94799-4 0  9990,2 51754  53.2184 346.8127 0001301  91.3710 268.7431 15.08846534114599,6917.86,95.437,540.625,538.825,0.0
51754.0,STARLINK-3457,PAYLOAD,2024-03-10 03:58:47,15.08836769,0.0001655,53.2207,343.8372,85.776,274.3422,0.00017767,2.54e-05,0.0,0 STARLINK-3457,1 51754U 22016AS  24070.16582759  .00002540  00000-0  17767-3 0  9991,2 51754  53.2207 343.8372 0001655  85.7760 274.3422 15.08836769114691,6917.89,95.438,540.9,538.61,0.0
51754.0,STARLINK-3457,PAYLOAD,2024-03-10 21:28:02,15.08834819,0.0001452,53.2177,340.5644,96.7777,263.3381,6.0139e-05,6.69e-06,0.0,0 STARLINK-3457,1 51754U 22016AS  24070.89447021  .00000669  00000-0  60139-4 0  9995,2 51754  53.2177 340.5644 0001452  96.7777 263.3381 15.08834819113682,6917.896,95.438,540.766,538.757,0.0
51754.0,STARLINK-3457,PAYLOAD,2024-03-11 03:49:34,15.08838414,0.0001534,53.2195,339.3787,88.0729,272.0438,-1.7114e-05,-5.6e-06,0.0,0 STARLINK-3457,1 51754U 22016AS  24071.15943269 -.00000560  00000-0 -17114-4 0  9997,2 51754  53.2195 339.3787 0001534  88.0729 272.0438 15.08838414114842,6917.885,95.438,540.811,538.689,0.0
51754.0,STARLINK-3457,PAYLOAD,2024-03-12 00:29:36,15.08814427,0.0001344,53.2182,335.5128,78.9903,281.124,0.00025981,3.847e-05,0.0,0 STARLINK-3457,1 51754U 22016AS  24072.02055790  .00003847  00000-0  25981-3 0  9996,2 51754  53.2182 335.5128 0001344  78.9903 281.1240 15.08814427114970,6917.959,95.439,540.753,538.894,0.0
51754.0,STARLINK-3457,PAYLOAD,2024-03-12 17:58:51,15.08825152,0.000132,53.218,332.2414,75.1018,285.012,-1.112e-05,-4.65e-06,0.0,0 STARLINK-3457,1 51754U 22016AS  24072.74920385 -.00000465  00000-0 -11120-4 0  9992,2 51754  53.2180 332.2414 0001320  75.1018 285.0120 15.08825152113965,6917.926,95.438,540.704,538.878,0.0
51754.0,STARLINK-3457,PAYLOAD,2024-03-13 01:55:46,15.08829539,0.0001601,53.2179,330.7544,74.956,285.1609,2.5908e-05,1.24e-06,0.0,0 STARLINK-3457,1 51754U 22016AS  24073.08040281  .00000124  00000-0  25908-4 0  9997,2 51754  53.2179 330.7544 0001601  74.9560 285.1609 15.08829539115138,6917.912,95.438,540.885,538.67,0.0
51754.0,STARLINK-3457,PAYLOAD,2024-03-13 09:52:41,15.0884239,0.0001481,53.2182,329.2692,83.2809,276.8351,0.00011032,1.468e-05,0.0,0 STARLINK-3457,1 51754U 22016AS  24073.41159216  .00001468  00000-0  11032-3 0  9997,2 51754  53.2182 329.2692 0001481  83.2809 276.8351 15.08842390115180,6917.873,95.437,540.763,538.714,0.0
51754.0,STARLINK-3457,PAYLOAD,2024-03-13 17:49:38,15.08831828,0.0001434,53.2172,327.7792,68.3209,291.7936,-7.5992e-05,-1.497e-05,0.0,0 STARLINK-3457,1 51754U 22016AS  24073.74280740 -.00001497  00000-0 -75992-4 0  9990,2 51754  53.2172 327.7792 0001434  68.3209 291.7936 15.08831828115234,6917.905,95.438,540.762,538.778,0.0
51754.0,STARLINK-3457,PAYLOAD,2024-03-13 22:35:47,15.0883733,0.0001768,53.2192,326.8888,78.2187,281.9003,-1.3277e-05,-4.99e-06,0.0,0 STARLINK-3457,1 51754U 22016AS  24073.94152330 -.00000499  00000-0 -13277-4 0  9994,2 51754  53.2192 326.8888 0001768  78.2187 281.9003 15.08837330114146,6917.889,95.438,540.977,538.53,0.0
51754.0,STARLINK-3457,PAYLOAD,2024-03-14 03:21:56,15.08840815,0.0001802,53.2201,325.9953,75.1592,284.96,1.3079e-05,-8e-07,0.0,0 STARLINK-3457,1 51754U 22016AS  24074.14024076 -.00000080  00000-0  13079-4 0  9997,2 51754  53.2201 325.9953 0001802  75.1592 284.9600 15.08840815115290,6917.878,95.438,540.989,538.496,0.0
51754.0,STARLINK-3457,PAYLOAD,2024-03-14 09:43:28,15.08850324,0.0001776,53.2195,324.8076,73.5491,286.5696,9.9418e-05,1.295e-05,0.0,0 STARLINK-3457,1 51754U 22016AS  24074.40519142  .00001295  00000-0  99418-4 0  9998,2 51754  53.2195 324.8076 0001776  73.5491 286.5696 15.08850324115330,6917.849,95.437,540.942,538.485,0.0
51754.0,STARLINK-3457,PAYLOAD,2024-03-14 20:51:11,15.08831292,0.0001601,53.2169,322.7258,79.8025,280.3148,9.37e-06,-1.39e-06,0.0,0 STARLINK-3457,1 51754U 22016AS  24074.86888568 -.00000139  00000-0  93700-5 0  9995,2 51754  53.2169 322.7258 0001601  79.8025 280.3148 15.08831292115404,6917.907,95.438,540.88,538.664,0.0
51754.0,STARLINK-3457,PAYLOAD,2024-03-14 22:26:34,15.08837682,8.67e-05,53.2168,322.4289,79.7429,280.366,-2.8679e-05,-7.44e-06,0.0,0 STARLINK-3457,1 51754U 22016AS  24074.93512159 -.00000744  00000-0 -28679-4 0  9998,2 51754  53.2168 322.4289 0000867  79.7429 280.3660 15.08837682114298,6917.887,95.438,540.352,539.153,0.0
51754.0,STARLINK-3457,PAYLOAD,2024-03-15 01:37:20,15.08842592,9.84e-05,53.2184,321.8316,81.7636,278.3467,1.5524e-05,-4.1e-07,0.0,0 STARLINK-3457,1 51754U 22016AS  24075.06759803 -.00000041  00000-0  15524-4 0  9996,2 51754  53.2184 321.8316 0000984  81.7636 278.3467 15.08842592115438,6917.872,95.437,540.418,539.057,0.0
51754.0,STARLINK-3457,PAYLOAD,2024-03-15 22:17:21,15.08838172,0.0001569,53.2182,317.9661,79.6697,280.4472,4.4171e-05,4.15e-06,0.0,0 STARLINK-3457,1 51754U 22016AS  24075.92872259  .00000415  00000-0  44171-4 0  9996,2 51754  53.2182 317.9661 0001569  79.6697 280.4472 15.08838172114447,6917.886,95.438,540.836,538.666,0.0
51754.0,STARLINK-3457,PAYLOAD,2024-03-15 23:52:44,15.08838183,0.000154,53.2183,317.668,80.7298,279.3868,5.2815e-05,5.53e-06,0.0,0 STARLINK-3457,1 51754U 22016AS  24075.99496217  .00000553  00000-0  52815-4 0  9996,2 51754  53.2183 317.6680 0001540  80.7298 279.3868 15.08838183115578,6917.886,95.438,540.816,538.686,0.0
51754.0,STARLINK-3457,PAYLOAD,2024-03-16 20:32:45,15.08818826,0.0001224,53.2175,313.8054,91.8248,268.2884,0.00037323,5.654e-05,0.0,0 STARLINK-3457,1 51754U 22016AS  24076.85608679  .00005654  00000-0  37323-3 0  9992,2 51754  53.2175 313.8054 0001224  91.8248 268.2884 15.08818826115701,6917.945,95.439,540.657,538.963,0.0
51754.0,STARLINK-3457,PAYLOAD,2024-03-16 22:08:08,15.08843038,0.0001322,53.2173,313.5081,88.1967,271.9177,5.395e-05,5.71e-06,0.0,0 STARLINK-3457,1 51754U 22016AS  24076.92231859  .00000571  00000-0  53950-4 0  9990,2 51754  53.2173 313.5081 0001322  88.1967 271.9177 15.08843038114597,6917.871,95.437,540.651,538.822,0.0
51754.0,STARLINK-3457,PAYLOAD,2024-03-17 21:58:55,15.08842645,0.0001329,53.2169,309.0477,86.4572,273.6572,7.435e-05,8.96e-06,0.0,0 STARLINK-3457,1 51754U 22016AS  24077.91591707  .00000896  00000-0  74350-4 0  9998,2 51754  53.2169 309.0477 0001329  86.4572 273.6572 15.08842645114749,6917.872,95.437,540.657,538.818,0.0
51754.0,STARLINK-3457,PAYLOAD,2024-03-18 01:09:41,15.08844485,0.0001298,53.2167,308.452,89.781,270.3331,8.7983e-05,1.113e-05,0.0,0 STARLINK-3457,1 51754U 22016AS  24078.04839496  .00001113  00000-0  87983-4 0  9992,2 51754  53.2167 308.4520 0001298  89.7810 270.3331 15.08844485115882,6917.867,95.437,540.63,538.834,0.0
51754.0,STARLINK-3457,PAYLOAD,2024-03-18 20:14:19,15.08840836,0.0001362,53.2166,304.8826,101.6691,258.4454,2.4483e-05,1.02e-06,0.0,0 STARLINK-3457,1 51754U 22016AS  24078.84327788  .00000102  00000-0  24483-4 0  9999,2 51754  53.2166 304.8826 0001362 101.6691 258.4454 15.08840836116007,6917.878,95.438,540.685,538.801,0.0
51754.0,STARLINK-3457,PAYLOAD,2024-03-18 21:49:42,15.08840129,0.0001304,53.2166,304.5854,98.212,261.902,1.5349e-05,-4.4e-07,0.0,0 STARLINK-3457,1 51754U 22016AS  24078.90951856 -.00000044  00000-0  15349-4 0  9992,2 51754  53.2166 304.5854 0001304  98.2120 261.9020 15.08840129114897,6917.88,95.438,540.647,538.843,0.0
51754.0,STARLINK-3457,PAYLOAD,2024-03-19 01:00:28,15.0884054,0.0001301,53.2165,303.9905,98.6833,261.4307,1.7007e-05,-1.7e-07,0.0,0 STARLINK-3457,1 51754U 22016AS  24079.04199805 -.00000017  00000-0  17007-4 0  9999,2 51754  53.2165 303.9905 0001301  98.6833 261.4307 15.08840540114911,6917.879,95.438,540.644,538.844,0.0
